STARLINK-31684          
1 59492U 24071J   26067.81379809 -.00003934  00000+0 -13350-3 0  9994
2 59492  42.9980 352.3031 0000637 257.0512 103.0268 15.27581574107988
BLUEBON                 
1 62688U 25009CH  26068.70316231  .00010452  00000+0  37313-3 0  9992
2 62688  97.4017 152.2033 0001193  43.3900 316.7434 15.29047253 63767
